INTELSAT 23 (IS-23)     
1 38867U 12057A   26176.15800062 -.00000275  00000+0  00000+0 0  9994
2 38867   0.0151   9.7735 0000095 155.3887 112.0078  1.00272002 50034
FM-6                    
1 39360U 13058A   26176.14551491 -.00000006  00000+0  00000+0 0  9995
2 39360   0.0153  53.0092 0001675 127.8550  28.5097  1.00271074 46157
INTELSAT 30 (IS-30)     
1 40271U 14062A   26176.14967492 -.00000141  00000+0  00000+0 0  9996
2 40271   0.0274  54.2798 0001487 340.3838 197.4546  1.00270562  6873
DIRECTV 14              
1 40333U 14078B   26175.18239096 -.00000118  00000+0  00000+0 0  9991
2 40333   0.0117  28.0808 0000217 350.4059 220.2724  1.00271057 42116
DIRECTV 15              
1 40663U 15026A   26176.14811492 -.00000093  00000+0  00000+0 0  9996
2 40663   0.0168  58.8380 0000544 339.4605 185.4343  1.00270309 40544
SKY MEXICO-1            
1 40664U 15026B   26176.15288160 -.00000225  00000+0  00000+0 0  9995
2 40664   0.0187 338.1849 0002517 132.4438 138.9017  1.00271161 40534
INTELSAT 34 (IS-34)     
1 40874U 15039A   26176.15756727 -.00000276  00000+0  00000+0 0  9997
2 40874   0.0096   8.4114 0000478  12.0602 254.0522  1.00270198 39716
INTELSAT 31 (IS-31)     
1 41581U 16035A   26176.14967492 -.00000141  00000+0  00000+0 0  9993
2 41581   0.0127 292.2322 0000679 327.6488 332.2376  1.00270780 36766
INTELSAT 36 (IS-36)     
1 41747U 16053A   26176.18209405 -.00000015  00000+0  00000+0 0  9994
2 41747   0.0128  20.9268 0002042 321.7510  64.7168  1.00272521 36034
INTELSAT 32E (IS-32E)   
1 41945U 17007B   26176.15999396  .00000000  00000+0  00000+0 0  9999
2 41945   0.0263  12.3082 0000328 342.9005 292.5044  1.00267463 34303
INTELSAT 35E (IS-35E)   
1 42818U 17041A   26176.17307280  .00000000  00000+0  00000+0 0  9994
2 42818   0.0243   8.0577 0002379  86.9446 206.1333  1.00269597 32898
INTELSAT 37E (IS-37E)   
1 42950U 17059A   26176.16493397  .00000000  00000+0  00000+0 0  9994
2 42950   0.0260  15.0600 0003092 104.1814 195.4311  1.00268807 32141
AZERSPACE 2 (IS-38)     
1 43632U 18074A   26176.17741404  .00000146  00000+0  00000+0 0  9997
2 43632   0.0035  82.5969 0001587  10.3273 289.3716  1.00272596 28529
HORIZONS-3E             
1 43633U 18074B   26175.13266341 -.00000024  00000+0  00000+0 0  9991
2 43633   0.0084 244.9552 0000546  64.2971 179.8035  1.00270268 28412
AT&T T-16               
1 44333U 19034A   26175.21687916 -.00000108  00000+0  00000+0 0  9993
2 44333   0.0234  69.8864 0000428 237.8872 301.8051  1.00269597 25701
INTELSAT 39 (IS-39)     
1 44476U 19049B   26175.96691691  .00000043  00000+0  00000+0 0  9991
2 44476   0.0066  29.2524 0000944 320.4307 333.4657  1.00271609 25205
GALAXY 30 (G-30)        
1 46114U 20056C   26175.23825740  .00000044  00000+0  00000+0 0  9997
2 46114   0.0116  48.6374 0002203  40.4727 144.0438  1.00270568 21364
GALAXY 33 (G-33)        
1 54026U 22128A   26176.14216903  .00000089  00000+0  00000+0 0  9995
2 54026   0.0142 350.9869 0002018  98.4402 102.0406  1.00270822 13823
GALAXY 34 (G-34)        
1 54027U 22128B   26174.32035351  .00000000  00000+0  00000+0 0  9993
2 54027   0.0203   0.4191 0001793 105.3742 152.0255  1.00267852 13973
GALAXY 31 (G-31)        
1 54243U 22153A   26176.12475457  .00000000  00000+0  00000+0 0  9996
2 54243   0.0172   2.5644 0001511  93.8237 100.7977  1.00272384  7219
GALAXY 32 (G-32)        
1 54244U 22153B   26175.22367264 -.00000167  00000+0  00000+0 0  9998
2 54244   0.0097   2.1596 0002133  41.7877 217.9513  1.00271380 13210
GALAXY 35 (G-35)        
1 54741U 22170A   26176.15010824 -.00000153  00000+0  00000+0 0  9994
2 54741   0.0146 309.3921 0002121 142.0946 142.7336  1.00271509 12973
GALAXY 36 (G-36)        
1 54742U 22170B   26176.15088825 -.00000176  00000+0  00000+0 0  9996
2 54742   0.0343 132.5365 0002829 314.9705 151.1100  1.00271784 12854
GALAXY 37 (G-37)        
1 57493U 23112A   26175.95392100  .00000057  00000+0  00000+0 0  9997
2 57493   0.0160  31.7708 0002245  61.6422  36.1021  1.00273244 10622
